norad_id,name,regime,epoch,line1,line2,inclination,eccentricity,mean_motion,raan,arg_pericenter,mean_anomaly
43231,O3B FM15,MEO,21242.45140539,1 43231U 18024A   21242.45140539 -.00000025  00000-0  00000-0 0    12\,2 43231   0.0535   4.3759 0002592 152.7738 202.8623  5.00115656 63390,0.0535,0.0002592,5.00115656,4.3759,152.7738,202.8623
43231,O3B FM15,MEO,21242.65129591,1 43231U 18024A   21242.65129591 -.00000025  00000-0  00000-0 0    19\,2 43231   0.0535   4.4010 0002592 152.9936 202.6175  5.00115656 63405,0.0535,0.0002592,5.00115656,4.401,152.9936,202.6175
43231,O3B FM15,MEO,21243.05107684,1 43231U 18024A   21243.05107684 -.00000025  00000-0  00000-0 0    13\,2 43231   0.0535   4.3368 0002591 153.4586 202.2165  5.00115663 63410,0.0535,0.0002591,5.00115663,4.3368,153.4586,202.2165
43231,O3B FM15,MEO,21243.45085800,1 43231U 18024A   21243.45085800 -.00000024  00000-0  00000-0 0    11\,2 43231   0.0535   4.3234 0002590 153.8371 201.8514  5.00115652 63430,0.0535,0.000259,5.00115652,4.3234,153.8371,201.8514
43231,O3B FM15,MEO,21243.65074852,1 43231U 18024A   21243.65074852 -.00000024  00000-0  00000-0 0    18\,2 43231   0.0535   4.3772 0002590 154.0651 201.5695  5.00115649 63456,0.0535,0.000259,5.00115649,4.3772,154.0651,201.5695
43231,O3B FM15,MEO,21244.45031037,1 43231U 18024A   21244.45031037 -.00000024  00000-0  00000-0 0    15\,2 43231   0.0535   4.3038 0002589 154.7957 200.9121  5.00115662 63491,0.0535,0.0002589,5.00115662,4.3038,154.7957,200.9121
43231,O3B FM15,MEO,21244.65020079,1 43231U 18024A   21244.65020079 -.00000023  00000-0  00000-0 0    10\,2 43231   0.0536   4.2935 0002589 154.9731 200.7449  5.00115668 63496,0.0536,0.0002589,5.00115668,4.2935,154.9731,200.7449
43231,O3B FM15,MEO,21245.44976308,1 43231U 18024A   21245.44976308 -.00000023  00000-0  00000-0 0    13\,2 43231   0.0536   4.2653 0002589 155.8777 199.8681  5.00115637 63541,0.0536,0.0002589,5.00115637,4.2653,155.8777,199.8681
43231,O3B FM15,MEO,21245.64965357,1 43231U 18024A   21245.64965357 -.00000022  00000-0  00000-0 0    16\,2 43231   0.0536   4.2601 0002589 156.0912 199.6598  5.00115637 63554,0.0536,0.0002589,5.00115637,4.2601,156.0912,199.6598
43231,O3B FM15,MEO,21246.24932505,1 43231U 18024A   21246.24932505 -.00000022  00000-0  00000-0 0    12\,2 43231   0.0536   4.2420 0002589 156.7335 199.0353  5.00115632 63580,0.0536,0.0002589,5.00115632,4.242,156.7335,199.0353
43231,O3B FM15,MEO,21246.44921572,1 43231U 18024A   21246.44921572 -.00000022  00000-0  00000-0 0    16\,2 43231   0.0536   4.2888 0002588 156.8959 198.8260  5.00115615 63596,0.0536,0.0002588,5.00115615,4.2888,156.8959,198.826
43231,O3B FM15,MEO,21247.24877762,1 43231U 18024A   21247.24877762 -.00000021  00000-0  00000-0 0    15\,2 43231   0.0536   4.2701 0002587 157.6707 198.0696  5.00115616 63630,0.0536,0.0002587,5.00115616,4.2701,157.6707,198.0696
43231,O3B FM15,MEO,21248.04833960,1 43231U 18024A   21248.04833960 -.00000020  00000-0  00000-0 0    15\,2 43231   0.0536   4.2450 0002587 158.5145 197.2506  5.00115610 63676,0.0536,0.0002587,5.0011561,4.245,158.5145,197.2506
43231,O3B FM15,MEO,21249.24768259,1 43231U 18024A   21249.24768259 -.00000018  00000-0  00000-0 0    13\,2 43231   0.0536   4.2090 0002585 159.7906 196.0101  5.00115603 63739,0.0536,0.0002585,5.00115603,4.209,159.7906,196.0101
43231,O3B FM15,MEO,21249.64746383,1 43231U 18024A   21249.64746383 -.00000018  00000-0  00000-0 0    11\,2 43231   0.0536   4.1979 0002585 160.2141 195.5976  5.00115582 63754,0.0536,0.0002585,5.00115582,4.1979,160.2141,195.5976
43231,O3B FM15,MEO,21250.44702580,1 43231U 18024A   21250.44702580 -.00000017  00000-0  00000-0 0    11\,2 43231   0.0536   4.1028 0002586 161.0317 194.8749  5.00115587 63793,0.0536,0.0002586,5.00115587,4.1028,161.0317,194.8749
43231,O3B FM15,MEO,21251.04669725,1 43231U 18024A   21251.04669725 -.00000017  00000-0  00000-0 0    11\,2 43231   0.0536   4.1555 0002585 161.7268 194.1270  5.00115587 63825,0.0536,0.0002585,5.00115587,4.1555,161.7268,194.127
43231,O3B FM15,MEO,21252.24604048,1 43231U 18024A   21252.24604048 -.00000016  00000-0  00000+0 0  3067\,2 43231   0.0536   4.0201 0002586 162.9971 192.9919  5.00115574 64044,0.0536,0.0002586,5.00115574,4.0201,162.9971,192.9919
43231,O3B FM15,MEO,21253.24549291,1 43231U 18024A   21253.24549291 -.00000017  00000-0  00000-0 0    10\,2 43231   0.0536   4.0494 0002585 163.9824 191.9769  5.00115576 63936,0.0536,0.0002585,5.00115576,4.0494,163.9824,191.9769
43231,O3B FM15,MEO,21253.64527412,1 43231U 18024A   21253.64527412 -.00000017  00000-0  00000-0 0    15\,2 43231   0.0536   4.0456 0002586 164.4203 191.5426  5.00115558 63950,0.0536,0.0002586,5.00115558,4.0456,164.4203,191.5426
43231,O3B FM15,MEO,21254.24494551,1 43231U 18024A   21254.24494551 -.00000018  00000-0  00000-0 0    10\,2 43231   0.0536   4.0517 0002585 165.0414 190.9152  5.00115562 63985,0.0536,0.0002585,5.00115562,4.0517,165.0414,190.9152
43231,O3B FM15,MEO,21254.44483633,1 43231U 18024A   21254.44483633 -.00000018  00000-0  00000-0 0    11\,2 43231   0.0536   4.0533 0002586 165.2036 190.7512  5.00115536 63996,0.0536,0.0002586,5.00115536,4.0533,165.2036,190.7512
43231,O3B FM15,MEO,21255.24439838,1 43231U 18024A   21255.24439838 -.00000020  00000-0  00000-0 0    11\,2 43231   0.0536   4.0608 0002586 166.0045 189.9422  5.00115522 64039,0.0536,0.0002586,5.00115522,4.0608,166.0045,189.9422
43231,O3B FM15,MEO,21255.64417917,1 43231U 18024A   21255.64417917 -.00000020  00000-0  00000-0 0    19\,2 43231   0.0536   4.0623 0002586 166.4328 189.5121  5.00115533 64050,0.0536,0.0002586,5.00115533,4.0623,166.4328,189.5121
43231,O3B FM15,MEO,21256.44374088,1 43231U 18024A   21256.44374088 -.00000022  00000-0  00000-0 0    11\,2 43231   0.0537   4.0735 0002586 167.1744 188.7585  5.00115543 64095,0.0537,0.0002586,5.00115543,4.0735,167.1744,188.7585
43231,O3B FM15,MEO,21256.44374090,1 43231U 18024A   21256.44374090 -.00000022  00000-0  00000+0 0  3072\,2 43231   0.0536   4.0345 0002586 167.1997 188.7722  5.00115542 64251,0.0536,0.0002586,5.00115542,4.0345,167.1997,188.7722
43231,O3B FM15,MEO,21256.84352163,1 43231U 18024A   21256.84352163 -.00000023  00000-0  00000-0 0    16\,2 43231   0.0536   4.0368 0002588 167.6372 188.3320  5.00115555 64108,0.0536,0.0002588,5.00115555,4.0368,167.6372,188.332
43231,O3B FM15,MEO,21257.24330238,1 43231U 18024A   21257.24330238 -.00000024  00000-0  00000-0 0    11\,2 43231   0.0537   4.0259 0002588 168.0307 187.9489  5.00115566 64126,0.0537,0.0002588,5.00115566,4.0259,168.0307,187.9489
43231,O3B FM15,MEO,21257.84297378,1 43231U 18024A   21257.84297378 -.00000026  00000-0  00000-0 0    16\,2 43231   0.0537   4.0485 0002589 168.6359 187.3205  5.00115561 64159,0.0537,0.0002589,5.00115561,4.0485,168.6359,187.3205
43231,O3B FM15,MEO,21258.64253561,1 43231U 18024A   21258.64253561 -.00000028  00000-0  00000-0 0    13\,2 43231   0.0537   4.1335 0002588 169.4224 186.4481  5.00115559 64202,0.0537,0.0002588,5.00115559,4.1335,169.4224,186.4481
43231,O3B FM15,MEO,21259.44209724,1 43231U 18024A   21259.44209724 -.00000030  00000-0  00000-0 0    17\,2 43231   0.0536   4.0913 0002588 170.2246 185.6873  5.00115578 64247,0.0536,0.0002588,5.00115578,4.0913,170.2246,185.6873
43231,O3B FM15,MEO,21260.24165918,1 43231U 18024A   21260.24165918 -.00000031  00000-0  00000-0 0    14\,2 43231   0.0536   4.1558 0002589 171.0775 184.7692  5.00115576 64281,0.0536,0.0002589,5.00115576,4.1558,171.0775,184.7692
43231,O3B FM15,MEO,21260.64144008,1 43231U 18024A   21260.64144008 -.00000032  00000-0  00000+0 0  3085\,2 43231   0.0536   4.0991 0002589 171.5026 184.4005  5.00115584 64469,0.0536,0.0002589,5.00115584,4.0991,171.5026,184.4005
43231,O3B FM15,MEO,21260.84133072,1 43231U 18024A   21260.84133072 -.00000032  00000-0  00000-0 0    17\,2 43231   0.0536   4.1097 0002588 171.6051 184.2873  5.00115577 64312,0.0536,0.0002588,5.00115577,4.1097,171.6051,184.2873
43231,O3B FM15,MEO,21261.44100219,1 43231U 18024A   21261.44100219 -.00000032  00000-0  00000-0 0    11\,2 43231   0.0536   4.1304 0002588 172.0400 183.8315  5.00115589 64348,0.0536,0.0002588,5.00115589,4.1304,172.04,183.8315
43231,O3B FM15,MEO,21261.64089283,1 43231U 18024A   21261.64089283 -.00000032  00000-0  00000-0 0    10\,2 43231   0.0536   4.1781 0002589 172.3885 183.4351  5.00115578 64353,0.0536,0.0002589,5.00115578,4.1781,172.3885,183.4351
43231,O3B FM15,MEO,21262.04067376,1 43231U 18024A   21262.04067376 -.00000032  00000-0  00000-0 0    14\,2 43231   0.0536   4.1799 0002590 172.8403 182.9813  5.00115590 64378,0.0536,0.000259,5.0011559,4.1799,172.8403,182.9813
43231,O3B FM15,MEO,21262.44045475,1 43231U 18024A   21262.44045475 -.00000032  00000-0  00000-0 0    14\,2 43231   0.0536   4.1870 0002589 173.2632 182.5512  5.00115599 64398,0.0536,0.0002589,5.00115599,4.187,173.2632,182.5512
43231,O3B FM15,MEO,21263.24001665,1 43231U 18024A   21263.24001665 -.00000032  00000-0  00000-0 0    16\,2 43231   0.0536   4.1070 0002589 174.1102 181.7841  5.00115628 64425,0.0536,0.0002589,5.00115628,4.107,174.1102,181.7841
43231,O3B FM15,MEO,21263.43990729,1 43231U 18024A   21263.43990729 -.00000032  00000-0  00000-0 0    15\,2 43231   0.0536   4.1921 0002589 174.2943 181.5149  5.00115625 64442,0.0536,0.0002589,5.00115625,4.1921,174.2943,181.5149
43231,O3B FM15,MEO,21264.23946929,1 43231U 18024A   21264.23946929 -.00000031  00000-0  00000-0 0    16\,2 43231   0.0536   4.1659 0002590 175.0184 180.8171  5.00115654 64481,0.0536,0.000259,5.00115654,4.1659,175.0184,180.8171
43231,O3B FM15,MEO,21265.23892210,1 43231U 18024A   21265.23892210 -.00000030  00000-0  00000-0 0    19\,2 43231   0.0536   4.1450 0002590 176.0548 179.8017  5.00115664 64539,0.0536,0.000259,5.00115664,4.145,176.0548,179.8017
43231,O3B FM15,MEO,21266.23837497,1 43231U 18024A   21266.23837497 -.00000029  00000-0  00000-0 0    14\,2 43231   0.0536   4.0464 0002590 177.0895 178.8657  5.00115666 64574,0.0536,0.000259,5.00115666,4.0464,177.0895,178.8657
